SCD 1                   
1 22490U 93009B   26197.85158071  .00000296  00000+0  30288-4 0  9999
2 22490  24.9706  24.4141 0042086  91.9943  34.7408 14.46129035765412
TECHSAT 1B (GO-32)      
1 25397U 98043D   26197.56639281  .00000006  00000+0  22598-4 0  9990
2 25397  99.0086 191.0683 0002226 112.6972 247.4441 14.24433519455510
SCD 2                   
1 25504U 98060A   26197.49977346  .00000267  00000+0  23859-4 0  9998
2 25504  24.9943 251.3914 0016999  73.1687 310.2431 14.45535062464575
DLR-TUBSAT              
1 25757U 99029B   26197.57172551 -.00000002  00000+0  11543-4 0  9993
2 25757  98.6711 194.0449 0012981 260.1458  99.8271 14.52433413437514
TERRA                   
1 25994U 99068A   26197.88536293  .00000171  00000+0  43683-4 0  9996
2 25994  97.9440 246.2517 0003480 119.2437 353.1464 14.61124440413947
MAROC-TUBSAT            
1 27004U 01056D   26197.49128579 -.00000042  00000+0  46412-5 0  9993
2 27004  99.8099  14.9053 0020583  68.8803 305.7155 13.70263591230202
AQUA                    
1 27424U 02022A   26197.28834417  .00000341  00000+0  77532-4 0  9992
2 27424  98.4296 167.1566 0000983 113.3067  21.1629 14.62197882287525
SHIYAN-1 (SY-1)         
1 28220U 04012A   26197.86091325  .00008072  00000+0  24427-3 0  9998
2 28220  97.8686 277.8723 0004109 266.9613  93.1158 15.34479585215649
AURA                    
1 28376U 04026A   26197.83918083  .00000357  00000+0  82020-4 0  9993
2 28376  98.3431 154.5414 0001337  93.5187 266.6166 14.61369162170546
IRS-P5 (CARTOSAT-1)     
1 28649U 05017A   26197.80662289  .00000748  00000+0  80725-4 0  9992
2 28649  97.5306 219.5276 0001309  51.1271 309.0065 14.91119416148231
SINAH 1                 
1 28893U 05043D   26197.84990317  .00000126  00000+0  33283-4 0  9999
2 28893  98.2896 332.3524 0014513 178.3565 181.7688 14.64176066104864
RESURS-DK 1             
1 29228U 06021A   26197.45020316  .00000852  00000+0  53811-4 0  9994
2 29228  69.9306 263.7965 0007178 269.6714  90.3630 15.13321208107009
ARIRANG-2 (KOMPSAT-2)   
1 29268U 06031A   26197.81753228  .00000123  00000+0  31558-4 0  9999
2 29268  97.8307  20.8312 0014133 345.6401 139.7997 14.64676110 65815
LAPAN-TUBSAT            
1 29709U 07001A   26197.81545942  .00000152  00000+0  23954-4 0  9992
2 29709  98.1347 197.7092 0013595  89.1662 271.1110 14.85976075 55556
HAIYANG-1B              
1 31113U 07010A   26197.51121787  .00000025  00000+0  25348-4 0  9996
2 31113  98.3516 178.2219 0014679 112.1699 248.1044 14.31033518  4836
COSMO-SKYMED 1          
1 31598U 07023A   26197.80933855  .00001468  00000+0  13204-3 0  9995
2 31598  97.8847  29.9159 0001563 102.5898 257.5499 14.97224237 34227
TERRASAR-X              
1 31698U 07026A   26188.47915537  .00000240  00000+0  14624-4 0  9994
2 31698  97.4461 195.8972 0001878  86.9540 273.1909 15.19153986 56300
WORLDVIEW-1 (WV-1)      
1 32060U 07041A   26197.76466494  .00003046  00000+0  12657-3 0  9990
2 32060  97.3908 317.0939 0001676 198.8827 161.2348 15.24568766 47381
YAOGAN-3                
1 32289U 07055A   26197.86053420  .00000556  00000+0  62057-4 0  9993
2 32289  97.8142 227.4452 0001586  77.2819 282.8576 14.90885440 10290
COSMO-SKYMED 2          
1 32376U 07059A   26197.79817204  .00000147  00000+0  24970-4 0  9992
2 32376  97.8895  20.9678 0001464  93.9717 266.1663 14.82151219  6394
RADARSAT-2              
1 32382U 07061A   26197.84540166  .00000001  00000+0  17376-4 0  9999
2 32382  98.5778 204.3545 0001317  84.2019 275.9313 14.29983392970199
CARTOSAT-2A             
1 32783U 08021A   26197.87692293 -.00000176  00000+0 -16870-4 0  9996
2 32783  97.7615 245.5699 0012362  22.0633 338.1108 14.79275705983191
HUANJING 1A (HJ-1A)     
1 33320U 08041A   26197.90116856  .00000244  00000+0  35368-4 0  9993
2 33320  97.6694 182.5937 0020192  44.3722 315.9106 14.84049207962815
HUANJING 1B (HJ-1B)     
1 33321U 08041B   26197.88389498  .00000315  00000+0  44217-4 0  9997
2 33321  97.6532 185.6587 0038002  85.9350 274.6207 14.83367315962814
GEOEYE 1                
1 33331U 08042A   26197.80087071  .00000162  00000+0  39403-4 0  9994
2 33331  98.1327 271.3779 0003833 341.2160  18.8901 14.64650045954487
THEOS                   
1 33396U 08049A   26197.84208126  .00000051  00000+0  43760-4 0  9990
2 33396  98.5556 254.1604 0001094  89.8877 270.2426 14.20137112922173
COSMO-SKYMED 3          
1 33412U 08054A   26197.88891243  .00002697  00000+0  18343-3 0  9993
2 33412  97.8244  56.9504 0015884 161.0120 199.1703 15.07123432961414
YAOGAN-4                
1 33446U 08061A   26197.58034354  .00000439  00000+0  60266-4 0  9991
2 33446  97.9303 130.8748 0013699 341.0034  19.0667 14.83252632950028
GOSAT (IBUKI)           
1 33492U 09002A   26197.32033051  .00000277  00000+0  57400-4 0  9999
2 33492  98.0914 308.0397 0001139  88.5584 271.5751 14.67540354935730
DEIMOS-1                
1 35681U 09041A   26197.89429800  .00000334  00000+0  56449-4 0  9993
2 35681  97.7432 353.8390 0002778  90.8146 269.3382 14.75265729911260
DUBAISAT-1              
1 35682U 09041B   26197.32414516  .00000363  00000+0  61217-4 0  9991
2 35682  98.0086 330.2687 0009851 344.8442  15.2471 14.75167541909399
