OBJECT_NAME,OBJECT_ID,EPOCH,MEAN_MOTION,ECCENTRICITY,INCLINATION,RA_OF_ASC_NODE,ARG_OF_PERICENTER,MEAN_ANOMALY,EPHEMERIS_TYPE,CLASSIFICATION_TYPE,NORAD_CAT_ID,ELEMENT_SET_NO,REV_AT_EPOCH,BSTAR,MEAN_MOTION_DOT,MEAN_MOTION_DDOT
SCD 1,1993-009B,2026-07-16T20:26:16.573344,14.46129035,.0042086,24.9706,24.4141,91.9943,34.7408,0,U,22490,999,76541,.30288E-4,.296E-5,0
TECHSAT 1B (GO-32),1998-043D,2026-07-16T13:35:36.338784,14.24433519,.0002226,99.0086,191.0683,112.6972,247.4441,0,U,25397,999,45551,.22598E-4,.6E-7,0
SCD 2,1998-060A,2026-07-16T11:59:40.426944,14.45535062,.0016999,24.9943,251.3914,73.1687,310.2431,0,U,25504,999,46457,.23859E-4,.267E-5,0
DLR-TUBSAT,1999-029B,2026-07-16T13:43:17.084064,14.52433413,.0012981,98.6711,194.0449,260.1458,99.8271,0,U,25757,999,43751,.11543E-4,-.2E-7,0
TERRA,1999-068A,2026-07-16T21:14:55.357152,14.61124440,.000348,97.9440,246.2517,119.2437,353.1464,0,U,25994,999,41394,.43683E-4,.171E-5,0
MAROC-TUBSAT,2001-056D,2026-07-16T11:47:27.092256,13.70263591,.0020583,99.8099,14.9053,68.8803,305.7155,0,U,27004,999,23020,.46412E-5,-.42E-6,0
AQUA,2002-022A,2026-07-16T06:55:12.936288,14.62197882,.0000983,98.4296,167.1566,113.3067,21.1629,0,U,27424,999,28752,.77532E-4,.341E-5,0
SHIYAN-1 (SY-1),2004-012A,2026-07-16T20:39:42.904800,15.34479585,.0004109,97.8686,277.8723,266.9613,93.1158,0,U,28220,999,21564,.24427E-3,.8072E-4,0
AURA,2004-026A,2026-07-16T20:08:25.223712,14.61369162,.0001337,98.3431,154.5414,93.5187,266.6166,0,U,28376,999,17054,.8202E-4,.357E-5,0
IRS-P5 (CARTOSAT-1),2005-017A,2026-07-16T19:21:32.217696,14.91119416,.0001309,97.5306,219.5276,51.1271,309.0065,0,U,28649,999,14823,.80725E-4,.748E-5,0
SINAH 1,2005-043D,2026-07-16T20:23:51.633888,14.64176066,.0014513,98.2896,332.3524,178.3565,181.7688,0,U,28893,999,10486,.33283E-4,.126E-5,0
RESURS-DK 1,2006-021A,2026-07-16T10:48:17.553024,15.13321208,.0007178,69.9306,263.7965,269.6714,90.3630,0,U,29228,999,10700,.53811E-4,.852E-5,0
ARIRANG-2 (KOMPSAT-2),2006-031A,2026-07-16T19:37:14.788992,14.64676110,.0014133,97.8307,20.8312,345.6401,139.7997,0,U,29268,999,6581,.31558E-4,.123E-5,0
LAPAN-TUBSAT,2007-001A,2026-07-16T19:34:15.693888,14.85976075,.0013595,98.1347,197.7092,89.1662,271.1110,0,U,29709,999,5555,.23954E-4,.152E-5,0
HAIYANG-1B,2007-010A,2026-07-16T12:16:09.223968,14.31033518,.0014679,98.3516,178.2219,112.1699,248.1044,0,U,31113,999,483,.25348E-4,.25E-6,0
COSMO-SKYMED 1,2007-023A,2026-07-16T19:25:26.850720,14.97224237,.0001563,97.8847,29.9159,102.5898,257.5499,0,U,31598,999,3422,.13204E-3,.1468E-4,0
TERRASAR-X,2007-026A,2026-07-07T11:29:59.023968,15.19153986,.0001878,97.4461,195.8972,86.9540,273.1909,0,U,31698,999,5630,.14624E-4,.24E-5,0
WORLDVIEW-1 (WV-1),2007-041A,2026-07-16T18:21:07.050816,15.24568766,.0001676,97.3908,317.0939,198.8827,161.2348,0,U,32060,999,4738,.12657E-3,.3046E-4,0
YAOGAN-3,2007-055A,2026-07-16T20:39:10.154880,14.90885440,.0001586,97.8142,227.4452,77.2819,282.8576,0,U,32289,999,1029,.62057E-4,.556E-5,0
COSMO-SKYMED 2,2007-059A,2026-07-16T19:09:22.064256,14.82151219,.0001464,97.8895,20.9678,93.9717,266.1663,0,U,32376,999,639,.2497E-4,.147E-5,0
RADARSAT-2,2007-061A,2026-07-16T20:17:22.703424,14.29983392,.0001317,98.5778,204.3545,84.2019,275.9313,0,U,32382,999,97019,.17376E-4,.1E-7,0
CARTOSAT-2A,2008-021A,2026-07-16T21:02:46.141152,14.79275705,.0012362,97.7615,245.5699,22.0633,338.1108,0,U,32783,999,98319,-.1687E-4,-.176E-5,0
HUANJING 1A (HJ-1A),2008-041A,2026-07-16T21:37:40.963584,14.84049207,.0020192,97.6694,182.5937,44.3722,315.9106,0,U,33320,999,96281,.35368E-4,.244E-5,0
HUANJING 1B (HJ-1B),2008-041B,2026-07-16T21:12:48.526272,14.83367315,.0038002,97.6532,185.6587,85.9350,274.6207,0,U,33321,999,96281,.44217E-4,.315E-5,0
GEOEYE 1,2008-042A,2026-07-16T19:13:15.229344,14.64650045,.0003833,98.1327,271.3779,341.2160,18.8901,0,U,33331,999,95448,.39403E-4,.162E-5,0
THEOS,2008-049A,2026-07-16T20:12:35.820864,14.20137112,.0001094,98.5556,254.1604,89.8877,270.2426,0,U,33396,999,92217,.4376E-4,.51E-6,0
COSMO-SKYMED 3,2008-054A,2026-07-16T21:20:02.033952,15.07123432,.0015884,97.8244,56.9504,161.0120,199.1703,0,U,33412,999,96141,.18343E-3,.2697E-4,0
YAOGAN-4,2008-061A,2026-07-16T13:55:41.681856,14.83252632,.0013699,97.9303,130.8748,341.0034,19.0667,0,U,33446,999,95002,.60266E-4,.439E-5,0
GOSAT (IBUKI),2009-002A,2026-07-16T07:41:16.556064,14.67540354,.0001139,98.0914,308.0397,88.5584,271.5751,0,U,33492,999,93573,.574E-4,.277E-5,0
DEIMOS-1,2009-041A,2026-07-16T21:27:47.347200,14.75265729,.0002778,97.7432,353.8390,90.8146,269.3382,0,U,35681,999,91126,.56449E-4,.334E-5,0
DUBAISAT-1,2009-041B,2026-07-16T07:46:46.141824,14.75167541,.0009851,98.0086,330.2687,344.8442,15.2471,0,U,35682,999,90939,.61217E-4,.363E-5,0
